0 COSMOS 1526
1 14615U 84001E   13281.43863502  .00000027  00000-0  27514-3 0  2462
2 14615 074.0063 274.5671 0012964 261.2908 253.0327 12.52985872361271
0 COSMOS 1526
1 14615U 84001E   13283.81458866  .00000004  00000-0  12917-3 0  2476
2 14615 074.0063 271.3873 0012952 257.8880 170.1817 12.52986227361578
0 COSMOS 1526
1 14615U 84001E   13286.14237819 -.00000033  00000-0 -10712-3 0  2484
2 14615 074.0065 268.2719 0012931 254.5560 230.0783 12.52986549361867
0 COSMOS 1526
1 14615U 84001E   13288.38744002 -.00000030  00000-0 -89607-4 0  2497
2 14615 074.0070 265.2672 0012899 251.3526 276.8097 12.52986518362142
0 COSMOS 1526
1 14615U 84001E   13290.67722053 -.00000006  00000-0  62752-4 0  2500
2 14615 074.0075 262.2027 0012866 248.0551 165.2837 12.52986327362436
0 COSMOS 1526
1 14615U 84001E   13292.83900191  .00000013  00000-0  18646-3 0  2511
2 14615 074.0078 259.3099 0012840 244.9496 196.3848 12.52986151362702
0 COSMOS 1526
1 14615U 84001E   13295.16505466  .00000011  00000-0  16899-3 0  2523
2 14615 074.0078 256.1973 0012795 241.6107 248.4573 12.52986192362990
